{
  "type": "FeatureCollection",
  "features": [
    {
      "type": "Feature",
      "properties": {
        "norad_id": 58655,
        "name": "BEIDOU-3 M26 (C48)",
        "group": "beidou",
        "lat": -16.9823283936162,
        "lon": 56.02955000734718,
        "alt_km": 21527.771160278102,
        "timestamp": "2025-12-27T18:38:03.743761+00:00",
        "meta_object_name": "BEIDOU-3 M26 (C48)",
        "meta_object_id": "2023-207B",
        "meta_epoch": "2025-12-27T06:29:22.403616",
        "meta_mean_motion": 1.86231136,
        "meta_eccentricity": 0.0004292,
        "meta_inclination": 55.5988,
        "meta_ra_of_asc_node": 68.0955,
        "meta_arg_of_pericenter": 262.2645,
        "meta_mean_anomaly": 97.7357,
        "meta_ephemeris_type": 0,
        "meta_classification_type": "U",
        "meta_norad_cat_id": 58655,
        "meta_element_set_no": 999,
        "meta_rev_at_epoch": 1362,
        "meta_bstar": 0,
        "meta_mean_motion_dot": -3.8e-07,
        "meta_mean_motion_ddot": 0,
        "tle_line1": "1 58655U 23207B   25361.27039819 -.00000038  00000+0  00000+0 0  9999",
        "tle_line2": "2 58655  55.5988  68.0955 0004292 262.2645  97.7357  1.86231136 13629"
      },
      "geometry": {
        "type": "Point",
        "coordinates": [
          56.02955000734718,
          -16.9823283936162
        ]
      }
    },
    {
      "type": "Feature",
      "properties": {
        "norad_id": 61186,
        "name": "BEIDOU-3 M25 (C47)",
        "group": "beidou",
        "lat": 54.17163670993186,
        "lon": 48.77500649400224,
        "alt_km": 21535.557365456367,
        "timestamp": "2025-12-27T18:38:03.743787+00:00",
        "meta_object_name": "BEIDOU-3 M25 (C47)",
        "meta_object_id": "2024-168B",
        "meta_epoch": "2025-12-27T08:49:57.848160",
        "meta_mean_motion": 1.86229881,
        "meta_eccentricity": 0.000539,
        "meta_inclination": 54.6289,
        "meta_ra_of_asc_node": 308.2141,
        "meta_arg_of_pericenter": 300.5996,
        "meta_mean_anomaly": 241.7182,
        "meta_ephemeris_type": 0,
        "meta_classification_type": "U",
        "meta_norad_cat_id": 61186,
        "meta_element_set_no": 999,
        "meta_rev_at_epoch": 858,
        "meta_bstar": 0,
        "meta_mean_motion_dot": -6.1e-07,
        "meta_mean_motion_ddot": 0,
        "tle_line1": "1 61186U 24168B   25361.36803065 -.00000061  00000+0  00000+0 0  9997",
        "tle_line2": "2 61186  54.6289 308.2141 0005390 300.5996 241.7182  1.86229881  8587"
      },
      "geometry": {
        "type": "Point",
        "coordinates": [
          48.77500649400224,
          54.17163670993186
        ]
      }
    },
    {
      "type": "Feature",
      "properties": {
        "norad_id": 61187,
        "name": "BEIDOU-3 M27 (C49)",
        "group": "beidou",
        "lat": -39.38470100254691,
        "lon": 163.8086136812338,
        "alt_km": 21535.33314593626,
        "timestamp": "2025-12-27T18:38:03.743801+00:00",
        "meta_object_name": "BEIDOU-3 M27 (C49)",
        "meta_object_id": "2024-168C",
        "meta_epoch": "2025-12-26T02:09:38.712960",
        "meta_mean_motion": 1.86230112,
        "meta_eccentricity": 0.00025351,
        "meta_inclination": 54.6256,
        "meta_ra_of_asc_node": 308.2421,
        "meta_arg_of_pericenter": 341.7609,
        "meta_mean_anomaly": 198.677,
        "meta_ephemeris_type": 0,
        "meta_classification_type": "U",
        "meta_norad_cat_id": 61187,
        "meta_element_set_no": 999,
        "meta_rev_at_epoch": 603,
        "meta_bstar": 0,
        "meta_mean_motion_dot": -5.6e-07,
        "meta_mean_motion_ddot": 0,
        "tle_line1": "1 61187U 24168C   25360.09003140 -.00000056  00000+0  00000+0 0  9997",
        "tle_line2": "2 61187  54.6256 308.2421 0002535 341.7609 198.6770  1.86230112  6039"
      },
      "geometry": {
        "type": "Point",
        "coordinates": [
          163.8086136812338,
          -39.38470100254691
        ]
      }
    }
  ]
}